{"fetched_at":"2026-03-29T16:36:15Z","count":15609,"tles":[{"name":"STARLINK-4687","line1":"1 53784U 22111M   26087.75366366  .00003535  00000+0  24004-3 0  9997","line2":"2 53784  53.2158 188.5772 0001287  86.3634 273.7505 15.08841251196571","category":"Starlink"}]}